BEIDOU-2 IGSO-1 (C06)   
1 36828U 10036A   24188.55806606 -.00000100  00000+0  00000+0 0  9996
2 36828  54.2566 169.3880 0041918 207.4028 217.1016  1.00277052 51084
BEIDOU-2 G4 (C04)       
1 37210U 10057A   24189.79641694 -.00000117  00000+0  00000+0 0  9994
2 37210   1.8936  69.0848 0004171 156.4613 147.3886  1.00270645 50171
BEIDOU-2 IGSO-2 (C07)   
1 37256U 10068A   24177.03205666 -.00000185  00000+0  00000+0 0  9990
2 37256  48.8639 280.7291 0036230 210.2706 258.3565  1.00247372 49557
BEIDOU-2 IGSO-3 (C08)   
1 37384U 11013A   24189.42620116 -.00000173  00000+0  00000+0 0  9997
2 37384  61.3801  46.9138 0027047 173.7106 323.8883  1.00253943 48545
BEIDOU-2 IGSO-4 (C09)   
1 37763U 11038A   24189.42544031 -.00000022  00000+0  00000+0 0  9999
2 37763  54.5619 171.9936 0126248 229.1537 131.1226  1.00255598 47536
GSAT0101 (PRN E11)      
1 37846U 11060A   24188.49395918 -.00000101  00000+0  00000+0 0  9998
2 37846  57.1296   1.0112 0003170  56.3380 303.6973  1.70475955 79001
ANIK F1R                
1 28868U 05036A   24189.67171713 -.00000079  00000+0  00000+0 0  9998
2 28868   2.4842  85.4113 0003445  19.5817 315.6176  1.00271800 69040
INMARSAT 4-F2           
1 28899U 05044A   24189.50683569 -.00000266  00000+0  00000+0 0  9998
2 28899   4.2108  42.5342 0001634  73.8585 135.5013  1.00271915 68405
GSAT-8                  
1 37605U 11022A   24189.84710113  .00000081  00000+0  00000+0 0  9993
2 37605   0.2919  91.2671 0002823 166.7880  28.2577  1.00273339 48125
COSMOS 2433 (720)       
1 32275U 07052A   24189.39702946 -.00000082  00000+0  00000+0 0  9996
2 32275  65.9285 339.7134 0002210 199.8746 160.1083  2.13104188129936
COSMOS 2432 (719)       
1 32276U 07052B   24188.99955407 -.00000083  00000+0  00000+0 0  9995
2 32276  65.9435 339.8409 0008010 332.3639  28.8762  2.13103286129953
COSMOS 2434 (721)       
1 32393U 07065A   24188.90810392  .00000059  00000+0  00000+0 0  9995
2 32393  64.3204 215.9061 0000193 277.5958 319.6247  2.13103213128662
COSMOS 2436 (723)       
1 32395U 07065C   24189.40695646  .00000054  00000+0  00000+0 0  9991
2 32395  64.3290 215.9540 0015991 352.1652  42.9339  2.13102930128601
COSMOS 2456 (730)       
1 36111U 09070A   24189.50143097 -.00000021  00000+0  00000+0 0  9993
2 36111  64.6205  95.2598 0004100 323.8143 162.9868  2.13099208113306
COSMOS 2457 (733)       
1 36112U 09070B   24190.17635539 -.00000017  00000+0  00000+0 0  9991
2 36112  64.6052  95.0947 0003554 151.3756 266.4099  2.13101397113364
COSMOS 2460 (732)       
1 36402U 10007C   24187.01845394 -.00000086  00000+0  00000+0 0  9992
2 36402  65.7854 338.4553 0001848 105.8371  41.4463  2.13106294111552
GPS BIIR-2  (PRN 13)    
1 24876U 97035A   24189.22068968 -.00000017  00000+0  00000+0 0  9993
2 24876  55.6762 126.3494 0080866  52.4854 308.2153  2.00565617197714
GPS BIIR-4  (PRN 20)    
1 26360U 00025A   24189.61422519 -.00000077  00000+0  00000+0 0  9991
2 26360  54.6830  48.0485 0038044 214.7628 154.4560  2.00577406177048
GPS BIIR-5  (PRN 22)    
1 26407U 00040A   24189.42720111  .00000022  00000+0  00000+0 0  9997
2 26407  55.0583 243.3792 0144634 294.7403 141.9869  2.00560616175713
GPS BIIR-8  (PRN 16)    
1 27663U 03005A   24189.14616833  .00000025  00000+0  00000+0 0  9993
2 27663  55.0972 243.2015 0136368  47.4080 323.1818  2.00573724157077
GPS BIIR-9  (PRN 21)    
1 27704U 03010A   24189.32633041 -.00000108  00000+0  00000+0 0  9998
2 27704  55.0957 352.9781 0253214 328.0823  30.3349  2.00563797155867
GPS BIIR-11 (PRN 19)    
1 28190U 04009A   24189.50014565 -.00000072  00000+0  00000+0 0  9991
2 28190  55.4363 304.2292 0098338 149.2664 275.1084  2.00558792148719
GPS BIIR-13 (PRN 02)    
1 28474U 04045A   24190.09387139 -.00000106  00000+0  00000+0 0  9990
2 28474  55.4241 353.3733 0161847 292.9697 245.6258  2.00561498144192
GPS BIIRM-1 (PRN 17)    
1 28874U 05038A   24189.43238241 -.00000069  00000+0  00000+0 0  9990
2 28874  55.4822 301.6941 0136374 284.2483 114.9174  2.00554076137609
GPS BIIRM-2 (PRN 31)    
1 29486U 06042A   24189.26029102  .00000030  00000+0  00000+0 0  9998
2 29486  54.6797 179.4912 0103519  38.5601 137.0278  2.00554636130153
GPS BIIRM-3 (PRN 12)    
1 29601U 06052A   24188.94309752  .00000028  00000+0  00000+0 0  9991
2 29601  55.1280 242.1886 0084583  83.3001 277.7488  2.00568958129160
GPS BIIRM-4 (PRN 15)    
1 32260U 07047A   24189.24519780 -.00000033  00000+0  00000+0 0  9996
2 32260  53.6165 109.4192 0156069  75.7147 286.0068  2.00563007122575
GPS BIIRM-5 (PRN 29)    
1 32384U 07062A   24189.80450043 -.00000070  00000+0  00000+0 0  9999
2 32384  55.6219 302.5446 0028881 153.1075  19.8245  2.00576066121345
GPS BIIRM-6 (PRN 07)    
1 32711U 08012A   24190.16114556  .00000032  00000+0  00000+0 0  9993
2 32711  54.4528 178.2134 0188598 239.3788 118.7312  2.00568780119537
GPS BIIRM-8 (PRN 05)    
1 35752U 09043A   24189.41753766 -.00000069  00000+0  00000+0 0  9995
2 35752  55.6899  55.4783 0057139  72.7867 126.0817  2.00568051109125
GPS BIIF-1  (PRN 25)    
1 36585U 10022A   24189.54101194  .00000026  00000+0  00000+0 0  9997
2 36585  54.4389 237.1780 0114039  61.9655 346.3602  2.00552423103360
